STARLINK-1504
1 45746U 20038S   26061.02789414  .00035773  00000+0  57770-3 0  9992
2 45746  53.0232 179.1334 0001695 162.4258 197.6810 15.52557125316325
